<?xml version='1.0' encoding='utf8'?>
<osm version="0.6" generator="AnonymousAlligator's import script" upload-changeset="-1">
  <changeset id="-1">
    <tag k="comment" v="Import buildings and addresses in Jefferson Parish, see https://wiki.openstreetmap.org/wiki/Import/Catalogue/Jefferson_Parish_Addresses_and_Buildings"/>
    <tag k="source" v="Jefferson Parish Planning Department"/>
    <tag k="source_file" v="change-8180_13523.osm"/>
  </changeset>
  <node visible="true" id="-1" lat="29.96422466076689161695867369" lon="-90.13045008972659388746251352">
    <tag k="addr:housenumber" v="89"/>
    <tag k="addr:street" v="Jefferson Highway"/>
    <tag k="addr:city" v="Jefferson"/>
    <tag k="addr:postcode" v="70121"/>
  </node>
  <way id="970350551" version="1" action="modify">
    <tag k="building" v="yes"/>
    <tag k="addr:housenumber" v="111"/>
    <tag k="addr:street" v="Irving Street"/>
    <tag k="addr:city" v="Jefferson"/>
    <tag k="addr:postcode" v="70121"/>
    <nd ref="8979822453"/>
    <nd ref="8979822452"/>
    <nd ref="8979822451"/>
    <nd ref="8979822450"/>
    <nd ref="8979822449"/>
    <nd ref="8979822448"/>
    <nd ref="8979822447"/>
    <nd ref="8979822446"/>
    <nd ref="8979822445"/>
    <nd ref="8979822444"/>
    <nd ref="8979822453"/>
  </way>
  <way id="970350552" version="1" action="modify">
    <tag k="building" v="yes"/>
    <tag k="addr:housenumber" v="1200"/>
    <tag k="addr:street" v="Monticello Avenue"/>
    <tag k="addr:city" v="Jefferson"/>
    <tag k="addr:postcode" v="70121"/>
    <nd ref="8979822481"/>
    <nd ref="8979822480"/>
    <nd ref="8979822479"/>
    <nd ref="8979822478"/>
    <nd ref="8979822477"/>
    <nd ref="8979822476"/>
    <nd ref="8979822475"/>
    <nd ref="8979822474"/>
    <nd ref="8979822473"/>
    <nd ref="8979822472"/>
    <nd ref="8979822471"/>
    <nd ref="8979822470"/>
    <nd ref="8979822469"/>
    <nd ref="8979822468"/>
    <nd ref="8979822467"/>
    <nd ref="8979822466"/>
    <nd ref="8979822465"/>
    <nd ref="8979822464"/>
    <nd ref="8979822463"/>
    <nd ref="8979822462"/>
    <nd ref="8979822461"/>
    <nd ref="8979822460"/>
    <nd ref="8979822459"/>
    <nd ref="8979822458"/>
    <nd ref="8979822457"/>
    <nd ref="8979822456"/>
    <nd ref="8979822455"/>
    <nd ref="8979822454"/>
    <nd ref="8979822481"/>
  </way>
  <way id="970350622" version="1" action="modify">
    <tag k="building" v="yes"/>
    <tag k="addr:housenumber" v="100"/>
    <tag k="addr:street" v="Irving Street"/>
    <tag k="addr:city" v="Jefferson"/>
    <tag k="addr:postcode" v="70121"/>
    <nd ref="8979823151"/>
    <nd ref="8979823150"/>
    <nd ref="8979823149"/>
    <nd ref="8979823148"/>
    <nd ref="8979823147"/>
    <nd ref="8979823146"/>
    <nd ref="8979823145"/>
    <nd ref="8979823144"/>
    <nd ref="8979823143"/>
    <nd ref="8979823142"/>
    <nd ref="8979823151"/>
  </way>
  <way id="970350623" version="1" action="modify">
    <tag k="building" v="yes"/>
    <tag k="addr:housenumber" v="1116"/>
    <tag k="addr:street" v="Monticello Avenue"/>
    <tag k="addr:city" v="Jefferson"/>
    <tag k="addr:postcode" v="70121"/>
    <nd ref="8979823165"/>
    <nd ref="8979823164"/>
    <nd ref="8979823163"/>
    <nd ref="8979823162"/>
    <nd ref="8979823161"/>
    <nd ref="8979823160"/>
    <nd ref="8979823159"/>
    <nd ref="8979823158"/>
    <nd ref="8979823157"/>
    <nd ref="8979823156"/>
    <nd ref="8979823155"/>
    <nd ref="8979823154"/>
    <nd ref="8979823153"/>
    <nd ref="8979823152"/>
    <nd ref="8979823165"/>
  </way>
  <way id="970350624" version="1" action="modify">
    <tag k="building" v="yes"/>
    <tag k="addr:housenumber" v="1112"/>
    <tag k="addr:street" v="Monticello Avenue"/>
    <tag k="addr:city" v="Jefferson"/>
    <tag k="addr:postcode" v="70121"/>
    <nd ref="8979823183"/>
    <nd ref="8979823182"/>
    <nd ref="8979823181"/>
    <nd ref="8979823180"/>
    <nd ref="8979823179"/>
    <nd ref="8979823178"/>
    <nd ref="8979823177"/>
    <nd ref="8979823176"/>
    <nd ref="8979823175"/>
    <nd ref="8979823174"/>
    <nd ref="8979823173"/>
    <nd ref="8979823172"/>
    <nd ref="8979823171"/>
    <nd ref="8979823170"/>
    <nd ref="8979823169"/>
    <nd ref="8979823168"/>
    <nd ref="8979823167"/>
    <nd ref="8979823166"/>
    <nd ref="8979823183"/>
  </way>
  <way id="970350625" version="1" action="modify">
    <tag k="building" v="yes"/>
    <tag k="addr:housenumber" v="1108"/>
    <tag k="addr:street" v="Monticello Avenue"/>
    <tag k="addr:city" v="Jefferson"/>
    <tag k="addr:postcode" v="70121"/>
    <nd ref="8979823193"/>
    <nd ref="8979823192"/>
    <nd ref="8979823191"/>
    <nd ref="8979823190"/>
    <nd ref="8979823189"/>
    <nd ref="8979823188"/>
    <nd ref="8979823187"/>
    <nd ref="8979823186"/>
    <nd ref="8979823185"/>
    <nd ref="8979823184"/>
    <nd ref="8979823193"/>
  </way>
</osm>
