<?xml version='1.0' encoding='utf8'?>
<osm version="0.6" generator="AnonymousAlligator's import script" upload-changeset="-1">
  <changeset id="-1">
    <tag k="comment" v="Import buildings and addresses in Jefferson Parish, see https://wiki.openstreetmap.org/wiki/Import/Catalogue/Jefferson_Parish_Addresses_and_Buildings"/>
    <tag k="source" v="Jefferson Parish Planning Department"/>
    <tag k="source_file" v="change-8171_13518.osm"/>
  </changeset>
  <node visible="true" id="-1" lat="30.00453545371394170615531038" lon="-90.22529644509910440319799818"/>
  <node visible="true" id="-2" lat="30.00454198438313113683761912" lon="-90.22539948017076483210985316"/>
  <node visible="true" id="-3" lat="30.00463439743687743543887336" lon="-90.22539166956678968745109159"/>
  <node visible="true" id="-4" lat="30.00462786677364590559591306" lon="-90.22528863449512925853923662"/>
  <way visible="true" id="-1">
    <nd ref="-1"/>
    <nd ref="-2"/>
    <nd ref="-3"/>
    <nd ref="-4"/>
    <nd ref="-1"/>
    <tag k="building" v="yes"/>
    <tag k="addr:street" v="Mississippi Avenue"/>
    <tag k="addr:city" v="Metairie"/>
    <tag k="addr:postcode" v="70003"/>
  </way>
  <way id="722613419" version="1" action="modify">
    <tag k="addr:city" v="Metairie"/>
    <tag k="addr:housenumber" v="3012"/>
    <tag k="addr:postcode" v="70003"/>
    <tag k="addr:state" v="LA"/>
    <tag k="addr:street" v="David Drive"/>
    <tag k="building" v="yes"/>
    <tag k="name" v="Supreme Title of Louisiana Inc"/>
    <tag k="opening_hours" v="Mo-Fr 08:30-17:30"/>
    <tag k="phone" v="+1 504-454-2828"/>
    <tag k="website" v="http://supremetitle.com"/>
    <nd ref="5950497574"/>
    <nd ref="6778281016"/>
    <nd ref="6778281017"/>
    <nd ref="6778281018"/>
    <nd ref="6778281019"/>
    <nd ref="6778281020"/>
    <nd ref="5950497574"/>
  </way>
</osm>
