<?xml version='1.0' encoding='utf8'?>
<osm version="0.6" generator="AnonymousAlligator's import script" upload-changeset="-1">
  <changeset id="-1">
    <tag k="comment" v="Import buildings and addresses in Jefferson Parish, see https://wiki.openstreetmap.org/wiki/Import/Catalogue/Jefferson_Parish_Addresses_and_Buildings"/>
    <tag k="source" v="Jefferson Parish Planning Department"/>
    <tag k="source_file" v="change-8172_13518.osm"/>
  </changeset>
  <node visible="true" id="-1" lat="30.00835088009023010613418592" lon="-90.20899525985714717535302043"/>
  <node visible="true" id="-2" lat="30.00845208069177516563286190" lon="-90.20903223083566047080239514"/>
  <node visible="true" id="-3" lat="30.00847594898973369481609552" lon="-90.20894510315442005321528995"/>
  <node visible="true" id="-4" lat="30.00831313258040466962484061" lon="-90.20888562246499020602641394"/>
  <node visible="true" id="-5" lat="30.00828373066680043734777428" lon="-90.20899294961014902582974173"/>
  <node visible="true" id="-6" lat="30.00834534651722762532699562" lon="-90.20901545932105136671452783"/>
  <way visible="true" id="-1">
    <nd ref="-1"/>
    <nd ref="-2"/>
    <nd ref="-3"/>
    <nd ref="-4"/>
    <nd ref="-5"/>
    <nd ref="-6"/>
    <nd ref="-1"/>
    <tag k="building" v="yes"/>
    <tag k="addr:street" v="Academy Drive"/>
    <tag k="addr:city" v="Metairie"/>
    <tag k="addr:postcode" v="70003"/>
  </way>
  <node visible="true" id="-7" lat="30.01182515500072511827056587" lon="-90.21797357684776841324492125">
    <tag k="addr:street" v="Kawanee Avenue"/>
    <tag k="addr:city" v="Metairie"/>
    <tag k="addr:postcode" v="70003"/>
  </node>
  <node visible="true" id="-8" lat="30.00816348415976264618620917" lon="-90.21647424891168043359357398">
    <tag k="addr:housenumber" v="6450"/>
    <tag k="addr:street" v="I-10"/>
    <tag k="addr:city" v="Metairie"/>
    <tag k="addr:postcode" v="70003"/>
    <tag k="addr:unit" v="MSY SIGN"/>
  </node>
  <way id="535940070" version="2" action="modify">
    <tag k="addr:city" v="Metairie"/>
    <tag k="addr:housenumber" v="3444"/>
    <tag k="addr:postcode" v="70003"/>
    <tag k="addr:state" v="LA"/>
    <tag k="addr:street" v="Olympic Drive"/>
    <tag k="building" v="yes"/>
    <tag k="name" v="Safeguard Self Storage"/>
    <tag k="phone" v="+1-504-208-1878"/>
    <tag k="shop" v="storage_rental"/>
    <nd ref="5193103859"/>
    <nd ref="5193103860"/>
    <nd ref="5193103861"/>
    <nd ref="5193103862"/>
    <nd ref="5193103859"/>
  </way>
</osm>
