<?xml version='1.0' encoding='utf8'?>
<osm version="0.6" generator="AnonymousAlligator's import script">
  <changeset_tag k="comment" v="Import buildings and addresses in Jefferson Parish, see https://wiki.openstreetmap.org/wiki/Import/Catalogue/Jefferson_Parish_Addresses_and_Buildings"/>
  <changeset_tag k="source" v="Jefferson Parish Planning Department"/>
  <changeset_tag k="source_file" v="8182_13543"/>
  <way id="1037264442" version="1" action="modify">
    <tag k="addr:city" v="Crown Point"/>
    <tag k="addr:housenumber" v="8165"/>
    <tag k="addr:postcode" v="70072"/>
    <tag k="addr:state" v="LA"/>
    <tag k="addr:street" v="Barataria Boulevard"/>
    <tag k="amenity" v="place_of_worship"/>
    <tag k="building" v="church"/>
    <tag k="denomination" v="roman_catholic"/>
    <tag k="diocese" v="New Orleans"/>
    <tag k="ele" v="1"/>
    <tag k="fax" v="+1 504-689-7417"/>
    <tag k="gnis:county_id" v="051"/>
    <tag k="gnis:created" v="01/01/2000"/>
    <tag k="gnis:feature_id" v="558314"/>
    <tag k="gnis:state_id" v="22"/>
    <tag k="name" v="Saint Pius X Catholic Church"/>
    <tag k="phone" v="+1 504-689-2381"/>
    <tag k="religion" v="christian"/>
    <tag k="website" v="https://stpiusxcrownpoint.org/"/>
    <nd ref="9555380322"/>
    <nd ref="9555380321"/>
    <nd ref="9555380320"/>
    <nd ref="9555380319"/>
    <nd ref="9555380322"/>
  </way>
</osm>
