<?xml version='1.0' encoding='utf8'?>
<osm version="0.6" generator="AnonymousAlligator's import script">
  <changeset_tag k="comment" v="Import buildings and addresses in Jefferson Parish, see https://wiki.openstreetmap.org/wiki/Import/Catalogue/Jefferson_Parish_Addresses_and_Buildings"/>
  <changeset_tag k="source" v="Jefferson Parish Planning Department"/>
  <changeset_tag k="source_file" v="8172_13519"/>
  <node visible="true" id="-1" lat="29.99665441201884874544703052" lon="-90.21967684725889569108403521">
    <tag k="addr:housenumber" v="8503"/>
    <tag k="addr:street" v="West Napoleon Avenue North"/>
    <tag k="addr:city" v="Metairie"/>
    <tag k="addr:postcode" v="70003"/>
  </node>
  <node visible="true" id="-2" lat="29.99632598360086177535777097" lon="-90.21723672153332529433100717">
    <tag k="addr:housenumber" v="7107"/>
    <tag k="addr:street" v="West Napoleon Avenue North"/>
    <tag k="addr:city" v="Metairie"/>
    <tag k="addr:postcode" v="70003"/>
  </node>
  <node visible="true" id="-3" lat="29.99620193578428128944324271" lon="-90.21545091119719472771976143">
    <tag k="addr:housenumber" v="7031"/>
    <tag k="addr:street" v="West Napoleon Avenue North"/>
    <tag k="addr:city" v="Metairie"/>
    <tag k="addr:postcode" v="70003"/>
  </node>
  <node visible="true" id="-4" lat="29.99582867916813810893472692" lon="-90.20980089818944236412789905">
    <tag k="addr:housenumber" v="6715"/>
    <tag k="addr:street" v="West Napoleon Avenue North"/>
    <tag k="addr:city" v="Metairie"/>
    <tag k="addr:postcode" v="70003"/>
  </node>
  <node visible="true" id="-5" lat="29.99565783555553721839714854" lon="-90.21132074553990776166756405">
    <tag k="addr:housenumber" v="6802"/>
    <tag k="addr:street" v="West Napoleon Avenue South"/>
    <tag k="addr:city" v="Metairie"/>
    <tag k="addr:postcode" v="70003"/>
  </node>
  <node visible="true" id="-6" lat="29.99568142349375676758427289" lon="-90.21128757135973330605338560">
    <tag k="addr:housenumber" v="6802"/>
    <tag k="addr:street" v="West Napoleon Avenue South"/>
    <tag k="addr:city" v="Metairie"/>
    <tag k="addr:postcode" v="70003"/>
    <tag k="addr:unit" v="Meter"/>
  </node>
  <node visible="true" id="-7" lat="29.99634578027226083918321820" lon="-90.21773691524960270271549234">
    <tag k="addr:housenumber" v="7207"/>
    <tag k="addr:street" v="West Napoleon Avenue North"/>
    <tag k="addr:city" v="Metairie"/>
    <tag k="addr:postcode" v="70003"/>
  </node>
  <way id="722613445" version="2">
    <tag k="addr:housenumber" v="2815"/>
    <tag k="addr:street" v="David Drive"/>
    <tag k="addr:city" v="Metairie"/>
    <tag k="addr:postcode" v="70003"/>
  </way>
  <way id="722613446" version="2">
    <tag k="addr:housenumber" v="2811"/>
    <tag k="addr:street" v="David Drive"/>
    <tag k="addr:city" v="Metairie"/>
    <tag k="addr:postcode" v="70003"/>
  </way>
  <way id="819659935" version="1">
    <tag k="addr:street" v="Park Manor Drive"/>
    <tag k="addr:city" v="Metairie"/>
    <tag k="addr:postcode" v="70003"/>
    <tag k="addr:unit" v="A, B"/>
  </way>
  <node visible="true" id="-8" lat="30.00206024083080436071213626" lon="-90.20917262093080069007555721">
    <tag k="addr:street" v="Park Manor Drive"/>
    <tag k="addr:city" v="Metairie"/>
    <tag k="addr:postcode" v="70003"/>
  </node>
</osm>
