<?xml version='1.0' encoding='utf8'?>
<osm version="0.6" generator="AnonymousAlligator's import script">
  <changeset_tag k="comment" v="Import buildings and addresses in Jefferson Parish, see https://wiki.openstreetmap.org/wiki/Import/Catalogue/Jefferson_Parish_Addresses_and_Buildings"/>
  <changeset_tag k="source" v="Jefferson Parish Planning Department"/>
  <changeset_tag k="source_file" v="8189_13531"/>
  <node visible="true" id="-1" lat="29.88488142799880620259500574" lon="-90.03286680474582226452184841"/>
  <node visible="true" id="-2" lat="29.88474720322505362446463550" lon="-90.03287632318398436837014742"/>
  <node visible="true" id="-3" lat="29.88475170014691073561152734" lon="-90.03296067898327237344346941"/>
  <node visible="true" id="-4" lat="29.88477845700108659343641193" lon="-90.03295878154416698180284584"/>
  <node visible="true" id="-5" lat="29.88477961482081468602700625" lon="-90.03298050059011359280702891"/>
  <node visible="true" id="-6" lat="29.88482264602353311033766659" lon="-90.03297744906858213198574958"/>
  <node visible="true" id="-7" lat="29.88482399686298762730984890" lon="-90.03300278890125696307222825"/>
  <node visible="true" id="-8" lat="29.88488843357180257953586988" lon="-90.03299821942373171168583212"/>
  <way visible="true" id="-1">
    <nd ref="-1"/>
    <nd ref="-2"/>
    <nd ref="-3"/>
    <nd ref="-4"/>
    <nd ref="-5"/>
    <nd ref="-6"/>
    <nd ref="-7"/>
    <nd ref="-8"/>
    <nd ref="-1"/>
    <tag k="building" v="yes"/>
    <tag k="addr:housenumber" v="211"/>
    <tag k="addr:street" v="Brett Drive"/>
    <tag k="addr:city" v="Gretna"/>
    <tag k="addr:postcode" v="70056"/>
  </way>
  <node visible="true" id="-9" lat="29.88521426928664581623706908" lon="-90.03286444471747529405547539"/>
  <node visible="true" id="-10" lat="29.88508903725540122309212165" lon="-90.03287418718973356135393260"/>
  <node visible="true" id="-11" lat="29.88509595494820558769788477" lon="-90.03299247585054843057150720"/>
  <node visible="true" id="-12" lat="29.88522118697074958504344977" lon="-90.03298273337829016327304998"/>
  <way visible="true" id="-2">
    <nd ref="-9"/>
    <nd ref="-10"/>
    <nd ref="-11"/>
    <nd ref="-12"/>
    <nd ref="-9"/>
    <tag k="building" v="yes"/>
    <tag k="addr:housenumber" v="207"/>
    <tag k="addr:street" v="Brett Drive"/>
    <tag k="addr:city" v="Gretna"/>
    <tag k="addr:postcode" v="70056"/>
  </way>
  <node visible="true" id="-13" lat="29.88194882272528474231876316" lon="-90.02685404745341202215058729">
    <tag k="addr:housenumber" v="250"/>
    <tag k="addr:street" v="Ochsner Boulevard"/>
    <tag k="addr:city" v="Gretna"/>
    <tag k="addr:postcode" v="70056"/>
    <tag k="addr:unit" v="200"/>
  </node>
  <node visible="true" id="-14" lat="29.88400602812126649610036111" lon="-90.02678550606525220700859791">
    <tag k="addr:housenumber" v="120"/>
    <tag k="addr:street" v="Ochsner Boulevard"/>
    <tag k="addr:city" v="Gretna"/>
    <tag k="addr:postcode" v="70056"/>
  </node>
  <node visible="true" id="-15" lat="29.88406895933846740831540956" lon="-90.02693261037902061616478022">
    <tag k="addr:housenumber" v="120"/>
    <tag k="addr:street" v="Ochsner Boulevard"/>
    <tag k="addr:city" v="Gretna"/>
    <tag k="addr:postcode" v="70056"/>
    <tag k="addr:unit" v="160"/>
  </node>
  <node visible="true" id="-16" lat="29.88404345807994744177449320" lon="-90.02676858103376389408367686">
    <tag k="addr:housenumber" v="120"/>
    <tag k="addr:street" v="Ochsner Boulevard"/>
    <tag k="addr:city" v="Gretna"/>
    <tag k="addr:postcode" v="70056"/>
  </node>
  <node visible="true" id="-17" lat="29.88492242247228602991526714" lon="-90.03290273000845900241984054"/>
  <node visible="true" id="-18" lat="29.88492971154698096825086395" lon="-90.03299954221303380563767860"/>
  <node visible="true" id="-19" lat="29.88502003394821571191641851" lon="-90.03299049589486457989551127"/>
  <node visible="true" id="-20" lat="29.88501978525273372611081868" lon="-90.03298719276131123478990048"/>
  <node visible="true" id="-21" lat="29.88504322616215702623776451" lon="-90.03298484501543441638204968"/>
  <node visible="true" id="-22" lat="29.88503618579149900824631914" lon="-90.03289133594439874741510721"/>
  <way visible="true" id="-3">
    <nd ref="-17"/>
    <nd ref="-18"/>
    <nd ref="-19"/>
    <nd ref="-20"/>
    <nd ref="-21"/>
    <nd ref="-22"/>
    <nd ref="-17"/>
    <tag k="building" v="yes"/>
    <tag k="addr:housenumber" v="209"/>
    <tag k="addr:street" v="Brett Drive"/>
    <tag k="addr:city" v="Gretna"/>
    <tag k="addr:postcode" v="70056"/>
  </way>
  <node visible="true" id="-23" lat="29.88559121804752294337959029" lon="-90.03294227124162318887101719"/>
  <node visible="true" id="-24" lat="29.88558014543527008299861336" lon="-90.03291495473968097940087318"/>
  <node visible="true" id="-25" lat="29.88562757452697482563053200" lon="-90.03288938009966102526959730"/>
  <node visible="true" id="-26" lat="29.88559595043779992806776136" lon="-90.03281136240170212658995297"/>
  <node visible="true" id="-27" lat="29.88548489653562256762597826" lon="-90.03287124467362900759326294"/>
  <node visible="true" id="-28" lat="29.88552759327933117106113059" lon="-90.03297657887353011574305128"/>
  <way visible="true" id="-4">
    <nd ref="-23"/>
    <nd ref="-24"/>
    <nd ref="-25"/>
    <nd ref="-26"/>
    <nd ref="-27"/>
    <nd ref="-28"/>
    <nd ref="-23"/>
    <tag k="building" v="yes"/>
    <tag k="addr:housenumber" v="203"/>
    <tag k="addr:street" v="Brett Drive"/>
    <tag k="addr:city" v="Gretna"/>
    <tag k="addr:postcode" v="70056"/>
  </way>
  <node visible="true" id="-29" lat="29.88540372428043312424961186" lon="-90.03286347998937344527803361"/>
  <node visible="true" id="-30" lat="29.88534523200357284622441512" lon="-90.03286648313168427648633951"/>
  <node visible="true" id="-31" lat="29.88534378244990463713293138" lon="-90.03282892580791951786522986"/>
  <node visible="true" id="-32" lat="29.88529434271736917594353145" lon="-90.03283146416816862256382592"/>
  <node visible="true" id="-33" lat="29.88529601554320436207490275" lon="-90.03287480635486872415640391"/>
  <node visible="true" id="-34" lat="29.88526859740136387699749321" lon="-90.03287621407072549573058495"/>
  <node visible="true" id="-35" lat="29.88527177696437320264521986" lon="-90.03295859513181653710489627"/>
  <node visible="true" id="-36" lat="29.88540712710994284861953929" lon="-90.03295164591339982962381328"/>
  <way visible="true" id="-5">
    <nd ref="-29"/>
    <nd ref="-30"/>
    <nd ref="-31"/>
    <nd ref="-32"/>
    <nd ref="-33"/>
    <nd ref="-34"/>
    <nd ref="-35"/>
    <nd ref="-36"/>
    <nd ref="-29"/>
    <tag k="building" v="yes"/>
    <tag k="addr:housenumber" v="205"/>
    <tag k="addr:street" v="Brett Drive"/>
    <tag k="addr:city" v="Gretna"/>
    <tag k="addr:postcode" v="70056"/>
  </way>
  <node visible="true" id="-37" lat="29.88470987022646241371148790" lon="-90.03289767275263955070840893"/>
  <node visible="true" id="-38" lat="29.88458740887854148127189546" lon="-90.03290428916857024432829348"/>
  <node visible="true" id="-39" lat="29.88459165550732876681649941" lon="-90.03301757809742866811575368"/>
  <node visible="true" id="-40" lat="29.88471099100481254140504461" lon="-90.03301100252706135051994352"/>
  <node visible="true" id="-41" lat="29.88471910934194397668761667" lon="-90.03301018033303648735454772"/>
  <node visible="true" id="-42" lat="29.88471423842754504107688263" lon="-90.03289689835503395443083718"/>
  <way visible="true" id="-6">
    <nd ref="-37"/>
    <nd ref="-38"/>
    <nd ref="-39"/>
    <nd ref="-40"/>
    <nd ref="-41"/>
    <nd ref="-42"/>
    <nd ref="-37"/>
    <tag k="building" v="yes"/>
    <tag k="addr:housenumber" v="213"/>
    <tag k="addr:street" v="Brett Drive"/>
    <tag k="addr:city" v="Gretna"/>
    <tag k="addr:postcode" v="70056"/>
  </way>
  <node visible="true" id="-43" lat="29.88586736848413849543248944" lon="-90.02664877246253638531925390">
    <tag k="addr:street" v="Belle Chasse Highway"/>
    <tag k="addr:city" v="Terrytown"/>
    <tag k="addr:postcode" v="70056"/>
  </node>
  <node visible="true" id="-44" lat="29.88603092145586970218573697" lon="-90.02661013504290110631700372">
    <tag k="addr:street" v="Belle Chasse Highway"/>
    <tag k="addr:city" v="Terrytown"/>
    <tag k="addr:postcode" v="70056"/>
  </node>
  <node visible="true" id="-45" lat="29.88295332887826916135054489" lon="-90.02590449386072180004703114">
    <tag k="addr:housenumber" v="151"/>
    <tag k="addr:street" v="Ochsner Boulevard"/>
    <tag k="addr:city" v="Gretna"/>
    <tag k="addr:postcode" v="70056"/>
    <tag k="addr:unit" v="F"/>
  </node>
  <way id="818614980" version="1" action="modify">
    <tag k="addr:city" v="Gretna"/>
    <tag k="addr:housenumber" v="419"/>
    <tag k="addr:postcode" v="70056"/>
    <tag k="addr:state" v="LA"/>
    <tag k="addr:street" v="Lapalco Boulevard"/>
    <tag k="amenity" v="ice_cream"/>
    <tag k="building" v="commercial"/>
    <tag k="name" v="Ms. B's Snowballs"/>
    <tag k="addr:unit" v="C"/>
    <nd ref="7644704309"/>
    <nd ref="7644704308"/>
    <nd ref="7644704307"/>
    <nd ref="7644704300"/>
    <nd ref="7644704310"/>
    <nd ref="7644704311"/>
    <nd ref="7644704309"/>
  </way>
</osm>
