<?xml version='1.0' encoding='utf8'?>
<osm version="0.6" generator="AnonymousAlligator's import script" upload-changeset="-1">
  <changeset id="-1">
    <tag k="comment" v="Import buildings and addresses in Jefferson Parish, see https://wiki.openstreetmap.org/wiki/Import/Catalogue/Jefferson_Parish_Addresses_and_Buildings"/>
    <tag k="source" v="Jefferson Parish Planning Department"/>
    <tag k="source_file" v="change-8175_13517.osm"/>
  </changeset>
  <way id="576740685" version="3" action="modify">
    <tag k="addr:city" v="Metairie"/>
    <tag k="addr:housenumber" v="4000"/>
    <tag k="addr:postcode" v="70002"/>
    <tag k="addr:street" v="West Esplanade Avenue"/>
    <tag k="amenity" v="place_of_worship"/>
    <tag k="building" v="yes"/>
    <tag k="denomination" v="reform"/>
    <tag k="name" v="Congregation Gates of Prayer"/>
    <tag k="phone" v="504-885-2600"/>
    <tag k="religion" v="jewish"/>
    <tag k="website" v="https://www.gatesofprayer.org/"/>
    <nd ref="5530856821"/>
    <nd ref="5530856822"/>
    <nd ref="5530856823"/>
    <nd ref="5530856824"/>
    <nd ref="5530856825"/>
    <nd ref="5530856826"/>
    <nd ref="5530856827"/>
    <nd ref="5530856828"/>
    <nd ref="7415718825"/>
    <nd ref="7415718829"/>
    <nd ref="7415718828"/>
    <nd ref="7415718827"/>
    <nd ref="7415718826"/>
    <nd ref="5530856829"/>
    <nd ref="5530856830"/>
    <nd ref="5530856831"/>
    <nd ref="5530856832"/>
    <nd ref="5530856833"/>
    <nd ref="5530856834"/>
    <nd ref="5530856835"/>
    <nd ref="5530856836"/>
    <nd ref="5530856837"/>
    <nd ref="5530856838"/>
    <nd ref="5530856839"/>
    <nd ref="5530856840"/>
    <nd ref="5530856841"/>
    <nd ref="5530856842"/>
    <nd ref="5530856843"/>
    <nd ref="5530856844"/>
    <nd ref="5530856821"/>
  </way>
  <way id="576747123" version="3" action="modify">
    <tag k="addr:city" v="Metairie"/>
    <tag k="addr:housenumber" v="4004"/>
    <tag k="addr:postcode" v="70002"/>
    <tag k="addr:street" v="West Esplanade Avenue"/>
    <tag k="amenity" v="place_of_worship"/>
    <tag k="building" v="yes"/>
    <tag k="denomination" v="orthodox"/>
    <tag k="name" v="Congregation Beth Israel"/>
    <tag k="phone" v="504-454-5080"/>
    <tag k="religion" v="jewish"/>
    <tag k="website" v="https://www.bethisraelnola.com/"/>
    <nd ref="5530894757"/>
    <nd ref="5530894758"/>
    <nd ref="7415718832"/>
    <nd ref="7415718833"/>
    <nd ref="7415718834"/>
    <nd ref="5530894762"/>
    <nd ref="7415718831"/>
    <nd ref="7415718830"/>
    <nd ref="5530894763"/>
    <nd ref="5530894757"/>
  </way>
</osm>
